HELIOS 1B               
1 25977U 99064A   26083.44325309  .00001744  00000+0  19765-3 0  9993
2 25977  98.1679 346.1191 0002022  54.8214 305.3191 14.87753327687456
TERRA                   
1 25994U 99068A   26083.52107582  .00000451  00000+0  10086-3 0  9997
2 25994  97.9562 136.3870 0003451 120.2031   8.3602 14.61029831397248
SL-16 R/B               
1 26070U 00006B   26083.35470587  .00000181  00000+0  11597-3 0  9994
2 26070  71.0010  66.9985 0015997 167.0241 193.1297 14.15824468350633
TITAN 4B R/B            
1 26474U 00047B   26083.47137026  .00004073  00000+0  25582-3 0  9991
2 26474  67.9913 358.9421 0039674  18.1153 342.1399 15.09699950395146
ENVISAT                 
1 27386U 02009A   26083.43171887  .00000121  00000+0  52951-4 0  9994
2 27386  98.3753  36.6802 0001246  81.3434  29.4205 14.39041818261295
IDEFIX & ARIANE 42P R/B 
1 27422U 02021B   26083.52860310  .00000266  00000+0  11749-3 0  9994
2 27422  98.5887  21.9589 0012422 139.3077 220.9037 14.31035660246148
AQUA                    
1 27424U 02022A   26083.53697956  .00000992  00000+0  20774-3 0  9996
2 27424  98.4199  51.1751 0000959 116.9139 308.9932 14.62009563270902
CZ-4B R/B               
1 27432U 02024C   26083.42155810  .00000029  00000+0  38012-4 0  9999
2 27432  98.8807 136.7520 0049723 342.3709  28.0322 14.14550142231322
MIDORI II (ADEOS-II)    
1 27597U 02056A   26083.36463669  .00000312  00000+0  14061-3 0  9995
2 27597  98.7794  41.9459 0000973  26.4579 333.6651 14.29295687212397
H-2A R/B                
1 27601U 02056E   26083.44207185  .00000288  00000+0  11520-3 0  9998
2 27601  98.3228  43.2483 0071240 117.1498 354.2662 14.33769990216221
CZ-4B R/B               
1 28059U 03049C   26083.44363147  .00000362  00000+0  94636-4 0  9993
2 28059  98.6892  78.9289 0048011 185.3231 174.7461 14.55032999188743
CZ-2C R/B               
1 28222U 04012C   26083.43949086  .00054128  00000+0  52091-3 0  9994
2 28222  97.7187 150.1474 0012999 249.4947 110.4917 15.66289055206589
SL-16 R/B               
1 28353U 04021B   26083.37738691  .00000019  00000+0  34667-4 0  9990
2 28353  71.0003 201.6690 0004746 351.8805   8.2240 14.14593458124916
CZ-4B R/B               
1 28415U 04035C   26083.37058815  .00007794  00000+0  27313-3 0  9993
2 28415  97.3476 117.4380 0029990 276.7126  83.0701 15.29314222182159
CZ-2C R/B               
1 28480U 04046B   26083.49092492  .00000142  00000+0  67220-4 0  9991
2 28480  98.1977 357.5529 0140510 110.9302 250.6984 14.26997125110617
ARIANE 5 R/B            
1 28499U 04049H   26083.45355263  .00000793  00000+0  94026-4 0  9994
2 28499  98.2649 252.4656 0083044 303.7000  55.6317 14.85291202147984
CZ-2D R/B               
1 28738U 05024B   26083.51911372  .00043463  00000+0  50784-3 0  9993
2 28738  97.3589  99.2238 0003169   0.8881 359.2382 15.61482287142090
